     2.100          NAVIGATION                              RINEX VERSION / TYPE
fic2rin                                 09/19/2014 00:17:38 PGM / RUN BY / DATE
                                                            END OF HEADER
16 14  9 18 14  0  0.0 -.194045249373D-03  .250111042988D-11  .000000000000D+00
     .640000000000D+02  .202500000000D+02  .413767235066D-08  .300550742322D+01
     .112131237984D-05  .765426526777D-02  .457651913166D-05  .515365961647D+04
     .396000000000D+06 -.106170773506D-06  .542149050341D+00 -.894069671631D-07
     .989049018662D+00  .307656250000D+03  .237426722507D+00 -.787818530090D-08
     .201436962087D-09  .100000000000D+01  .181000000000D+04  .000000000000D+00
     .240000000000D+01  .000000000000D+00 -.102445483208D-07  .640000000000D+02
     .388806000000D+06  .400000000000D+01
17 14  9 18 14  0  0.0 -.124750193208D-03 -.272848410532D-11  .000000000000D+00
     .890000000000D+02 -.843437500000D+02  .438768276460D-08  .210171820210D+01
    -.450015068054D-05  .946818583179D-02  .635907053947D-05  .515365153122D+04
     .396000000000D+06 -.558793544769D-07  .157257418480D+01 -.221654772758D-06
     .969496729396D+00  .262812500000D+03 -.209525873120D+01 -.802283418325D-08
    -.177864551630D-09  .100000000000D+01  .181000000000D+04  .000000000000D+00
     .240000000000D+01  .000000000000D+00 -.102445483208D-07  .890000000000D+02
     .388806000000D+06  .400000000000D+01
18 14  9 18 14  0  0.0  .345678534359D-03  .250111042988D-11  .000000000000D+00
     .500000000000D+02  .268437500000D+02  .533665086436D-08 -.267485461349D+01
     .142119824886D-05  .154935222818D-01  .631250441074D-05  .515372698021D+04
     .396000000000D+06  .199303030968D-06 -.267237000513D+01 -.949949026108D-07
     .925811646103D+00  .237687500000D+03 -.201029674575D+01 -.823427156189D-08
     .223223583873D-09  .100000000000D+01  .181000000000D+04  .000000000000D+00
     .240000000000D+01  .000000000000D+00 -.107102096081D-07  .500000000000D+02
     .388806000000D+06  .400000000000D+01
19 14  9 18 14  0  0.0 -.479299575090D-03 -.181898940355D-11  .000000000000D+00
     .800000000000D+01 -.745312500000D+02  .460697761340D-08  .124334301400D+01
    -.363960862160D-05  .106208198704D-01  .707432627678D-05  .515365451050D+04
     .396000000000D+06 -.558793544769D-08  .162304694173D+01  .169500708580D-06
     .966602705854D+00  .246781250000D+03  .501453545473D+00 -.825462955274D-08
    -.304655547269D-09  .100000000000D+01  .181000000000D+04  .000000000000D+00
     .240000000000D+01  .000000000000D+00 -.149011611938D-07  .800000000000D+01
     .388806000000D+06  .400000000000D+01
20 14  9 18 14  0  0.0  .235302839428D-03  .443378667114D-11  .000000000000D+00
     .710000000000D+02  .235000000000D+02  .541058251534D-08 -.216560292468D+01
     .125356018543D-05  .596672575921D-02  .661797821522D-05  .515372411728D+04
     .396000000000D+06  .113621354103D-06 -.272529468883D+01 -.502914190292D-07
     .926918005696D+00  .234687500000D+03  .132745002039D+01 -.836034824206D-08
     .121790787361D-09  .100000000000D+01  .181000000000D+04  .000000000000D+00
     .240000000000D+01  .000000000000D+00 -.791624188423D-08  .710000000000D+02
     .388806000000D+06  .400000000000D+01
21 14  9 18 14  0  0.0 -.384683255106D-03 -.204636307899D-11  .000000000000D+00
     .710000000000D+02 -.155937500000D+02  .493234830925D-08 -.172947535552D+01
    -.830739736557D-06  .216293393169D-01  .948831439018D-05  .515369804192D+04
     .396000000000D+06  .461935997009D-06  .256669638246D+01  .521540641785D-07
     .933047097020D+00  .176062500000D+03 -.199372639263D+01 -.795283126734D-08
     .105004373854D-09  .100000000000D+01  .181000000000D+04  .000000000000D+00
     .240000000000D+01  .000000000000D+00 -.111758708954D-07  .710000000000D+02
     .388806000000D+06  .400000000000D+01
22 14  9 18 14  0  0.0  .268997158855D-03  .341060513165D-11  .000000000000D+00
     .680000000000D+02  .266562500000D+02  .545737017852D-08  .305881540170D+01
     .134110450745D-05  .735910818912D-02  .621192157269D-05  .515372028160D+04
     .396000000000D+06  .484287738800D-07 -.267070567395D+01 -.763684511185D-07
     .923598931306D+00  .238437500000D+03 -.204990980535D+01 -.839320675361D-08
     .131791203918D-09  .100000000000D+01  .181000000000D+04  .000000000000D+00
     .240000000000D+01  .000000000000D+00 -.172294676304D-07  .680000000000D+02
     .388806000000D+06  .400000000000D+01
23 14  9 18 14  0  0.0 -.532791018486D-04 -.284217094304D-11  .000000000000D+00
     .240000000000D+02 -.656250000000D+00  .477627037940D-08  .824840327830D+00
     .102445483208D-06  .971485592891D-02  .753253698349D-05  .515373111725D+04
     .396000000000D+06 -.558793544769D-07 -.160425791096D+01  .206753611565D-06
     .950349381706D+00  .229031250000D+03 -.272994563895D+01 -.820641325862D-08
    -.389659088008D-09  .100000000000D+01  .181000000000D+04  .000000000000D+00
     .240000000000D+01  .000000000000D+00 -.200234353542D-07  .240000000000D+02
     .388806000000D+06  .400000000000D+01
24 14  9 18 14  0  0.0 -.353935174644D-04 -.568434188608D-12  .000000000000D+00
     .330000000000D+02  .372812500000D+02  .451197365610D-08  .175826463535D+00
     .199489295483D-05  .221468170639D-02  .926665961742D-05  .515371287727D+04
     .396000000000D+06  .540167093277D-07 -.577080217639D+00 -.372529029846D-08
     .955954384091D+00  .199906250000D+03  .243372454605D+00 -.806605026908D-08
     .114290474943D-10  .100000000000D+01  .181000000000D+04  .000000000000D+00
     .240000000000D+01  .000000000000D+00  .279396772385D-08  .330000000000D+02
     .388806000000D+06  .400000000000D+01
25 14  9 18 14  0  0.0  .211130827665D-04 -.102318153949D-11  .000000000000D+00
     .850000000000D+02  .336875000000D+02  .437125350883D-08 -.187754579680D+01
     .170804560184D-05  .366132135969D-02  .464357435703D-05  .515355295181D+04
     .396000000000D+06  .689178705215D-07  .479838971813D+00  .558793544769D-08
     .977151397044D+00  .298968750000D+03  .719909045387D+00 -.810426614664D-08
     .280011663610D-09  .100000000000D+01  .181000000000D+04  .000000000000D+00
     .240000000000D+01  .000000000000D+00  .558793544769D-08  .850000000000D+02
     .388806000000D+06  .400000000000D+01
26 14  9 18 14  0  0.0 -.591897405684D-04 -.129602995003D-10  .000000000000D+00
     .410000000000D+02 -.950000000000D+01  .432768026525D-08  .803575684176D+00
    -.538304448128D-06  .212316341931D-01  .835768878460D-05  .515368713570D+04
     .396000000000D+06 -.288709998131D-06 -.151331193664D+01 -.856816768646D-07
     .973480607889D+00  .230562500000D+03  .129381335711D+01 -.829534553444D-08
    -.480019994760D-09  .100000000000D+01  .181000000000D+04  .000000000000D+00
     .240000000000D+01  .000000000000D+00 -.605359673500D-08  .410000000000D+02
     .388806000000D+06  .400000000000D+01
27 14  9 18 14  0  0.0  .154543668032D-04  .306954461848D-11  .000000000000D+00
     .920000000000D+02 -.685625000000D+02  .466983737461D-08  .192010849424D+01
    -.350549817085D-05  .149807229172D-02  .619329512119D-05  .515367990685D+04
     .396000000000D+06 -.409781932831D-07  .152630917233D+01  .108033418655D-06
     .964292092579D+00  .261156250000D+03  .344392115005D+00 -.820248452355D-08
    -.133934150324D-09  .100000000000D+01  .181000000000D+04  .000000000000D+00
     .240000000000D+01  .000000000000D+00  .186264514923D-08  .920000000000D+02
     .388806000000D+06  .400000000000D+01
28 14  9 18 14  0  0.0  .385224353522D-03  .272848410532D-11  .000000000000D+00
     .390000000000D+02  .259375000000D+02  .410017078857D-08  .288636540283D+01
     .122375786304D-05  .193109862739D-01  .413507223129D-05  .515367948341D+04
     .396000000000D+06  .219792127609D-06  .547798167021D+00 -.175088644028D-06
     .987599566743D+00  .311562500000D+03 -.170814680868D+01 -.774496546604D-08
     .140362989539D-09  .100000000000D+01  .181000000000D+04  .000000000000D+00
     .240000000000D+01  .000000000000D+00 -.107102096081D-07  .390000000000D+02
     .388806000000D+06  .400000000000D+01
31 14  9 18 14  0  0.0  .331581104547D-03 -.454747350886D-12  .000000000000D+00
     .450000000000D+02  .517500000000D+02  .403623955415D-08 -.746519557433D+00
     .242143869400D-05  .804093084298D-02  .876374542713D-05  .515362843895D+04
     .396000000000D+06 -.108033418655D-06 -.533867301396D+00 -.121071934700D-06
     .977599282580D+00  .219156250000D+03 -.633114076245D+00 -.786675625340D-08
     .111076055335D-09  .100000000000D+01  .181000000000D+04  .000000000000D+00
     .240000000000D+01  .000000000000D+00 -.130385160446D-07  .450000000000D+02
     .388806000000D+06  .400000000000D+01
32 14  9 18 14  0  0.0 -.337356235832D-03  .864019966684D-11  .000000000000D+00
     .330000000000D+02  .174375000000D+02  .513414242907D-08 -.211518440398D+00
     .799074769020D-06  .114176882198D-01  .625662505627D-05  .515364566040D+04
     .396000000000D+06  .199303030968D-06 -.257579946336D+01 -.316649675369D-07
     .947663794732D+00  .252250000000D+03 -.878257148878D-01 -.847178145513D-08
     .317870383435D-10  .100000000000D+01  .181000000000D+04  .000000000000D+00
     .240000000000D+01  .000000000000D+00 -.325962901115D-08  .330000000000D+02
     .388806000000D+06  .400000000000D+01
12 14  9 18 13 59 44.0  .232834834605D-03  .261479726760D-11  .000000000000D+00
     .440000000000D+02  .324687500000D+02  .419017453759D-08 -.114151473733D+01
     .174343585968D-05  .506065029185D-02  .445358455181D-05  .515354613876D+04
     .395984000000D+06  .113621354103D-06  .523556776196D+00  .000000000000D+00
     .988477093764D+00  .308500000000D+03  .501633348345D+00 -.802033407911D-08
     .269654089318D-09  .100000000000D+01  .181000000000D+04  .000000000000D+00
     .240000000000D+01  .000000000000D+00 -.121071934700D-07  .440000000000D+02
     .391986000000D+06  .400000000000D+01
